region_name|name|address|suburb|postcode|link|email|phone|banner
Yorke Peninsula|Café Capella's|53 George St|Moonta|5558|https://www.cafecapellasmoonta.com|cafecapellas@gmail.com|08 88251081|
Yorke Peninsula|The Bellagio|41 Taylor St|Kadina|5554|https://thebellagio.com.au|thebellagiokadina@hotmail.com|(08) 8821 2267|
Yorke Peninsula|Inland Sea |12918 Yorke Hwy |Warooka|5577|http://www.inlandsea.com.au|admin@inlandsea.com.au|(08) 8854 5499|
Yorke Peninsula|Marion Bay Tavern|5 Stenhouse Bay Rd|Marion Bay|5575 |https://www.marionbaytavern.com.au/index.php|harkinhotelsptyltd@bigpond.com| (08) 8854 4141|
Yorke Peninsula|Moonta Hotel|1 George St|Moonta|5558|https://www.moontahotel.com|info@moontahotel.com|(08) 8825 2209|
Yorke Peninsula|Port Vincent Kiosk|20 Marine Pde|Port Vincent|5581|https://portvincentkiosk.com| portvincentkiosk@gmail.com|(08) 8853 7246|
Yorke Peninsula|Taste the York|56B George St|Moonta|5558|https://www.tastetheyorke.com.au|info@tastetheyorke.com.au|(08) 8825 3121|
Yorke Peninsula|Coopers Alehouse |11 Heritage Dr|Wallaroo|5556|https://www.coopersalehouse.com.au|great.times@coopersalehouse.com.au|(08) 8823 2488|
Yorke Peninsula|Yorke Valley Hotel|20 Robert St|Maitland|5573|https://www.yorkevalleyhotel.com.au|yorkevalleyhotel@outlook.com|(08) 8832 2422|
Yorke Peninsula|Edithburgh Hotel|16 Edith Street|Edithburgh|5583|https://edithburgh-hotel.business.site|edithburghhotel@gmail.com|(08) 8852 6484|
Yorke Peninsula|Minlaton Chocolaterie|38 Main St|Minlaton|5575|https://www.minlatonchocolaterie.com|info@minlatonchocolaterie.com|(08) 8853 2935|
Yorke Peninsula|The Seagate Bistro|Moonta Bay Rd|Moonta|5558|152 Eighteenth Street|info@seagatemoontabay.com.au|(08) 8825 3270|
Riverland|Arrosto Café|152 Eighteenth Street|Renmark|5341|https://www.arrostocoffee.com.au|sales@arrostocoffee.com.au|0418 850 157|
Riverland|Blanchtown Hotel|32-34 Egerton Street|Blanchetown|5357|https://www.blanchetownhotel.com.au|blanchetownhotel1@gmail.com|(08) 8540 5017|
Riverland|Caudo Vineyards|Section 237, In Hundred of Cadell|Cadell|5321|https://www.caudovineyard.com.au|nashly@caudo.com.au|0418 715 661|
Riverland|Mallee Estate Wines|20055 Renmark Avenue|Renmark South|5341|https://www.malleeestate.com.au|admin@malleeestate.com.au|(08) 8595 1088|
Riverland|Overland Corner Hotel|205 Old Coach Road|Overland Corner|5330|http://www.overlandcornerhotel.com.au/index.html|info@overlandcornerhotel.com.au|(08) 8588 7021|
Riverland|Patty's Kitchen|1000 Caddy Rd Barmera|Barmera|5345|https://www.loveday4x4adventures.com|mattybecker@outlook.com|0476 539 283|
Riverland|Renmark Club|160 Murray Avenue|Renmark|5341|https://www.renmarkclub.com.au|enquiry@renmarkclub.com.au|(08) 8586 6611|
Riverland|Riverland Wine Centre|8 Pike Creek Rd|Lyrup|5343|https://riverlandwinecentre.com.au|caire@pikeriver.com.au|0428 831 045|
Riverland|Salena Estate Wines|837 Bookpurnong Road|Loxton|5333|https://www.salenaestate.com.au/index.html|reception@salenaestate.com.au|(08) 8584 1333|
Riverland|Twenty Third Street Disillery|Corner of 23rd Street and Renmark Avenue|Renmark|5341|https://www.23rdstreetdistillery.com.au|visitor.centre@23rdstreetdistillery.com.au|(08) 8586 8500|
Riverland|Mallee Fowl |19042 Sturt Highway|Monash|5342|https://malleefowlrestaurant.com|malleefowlrestaurant4@gmail.com|0439 340 664 |
Riverland|Ashley's Restaurant|210 Renmark Ave|Renmark|5341|http://citrusvalleymotel.com.au/ashleys-restaurant|info@citrusvalleymotel.com.au|(08) 8586 6717|
Riverland|Berri Hotel|34 Riverview Drive, Berri SA|Berri|5343|https://www.berrihotel.com.au| info@berrihotel.com.au|(08) 8582 1411|
Riverland|Renmark Country Club|19878 Sturt Hwy, Renmark SA|Renmark|5341|https://www.renmarkcountryclub.com.au| info@renmarkcountryclub.com.au|(08) 8586 8265|
Riverland|Loxton Hotel |45 East Terrace|Loxton|5333|https://loxtonhotel.com.au|loxtonhotel@loxtonhotel.com.au|(08) 8584 7266|
Murraylands|Riverscape | 2 Murray Cods Dr|Murray bridge|5253|https://www.riverscape.com.au|bookings@riverscape.com.au|(08) 8531 0855 |
Murraylands|Wellington Courthouse| 678 Mason St|Wellington|5259|http://www.wellingtoncourthouse.com.au|info@wellingtoncourthouse.com.au|(08) 85727119 |
Murraylands|Café Manum| 76 Cliff St|Mannum|5238|https://www.mannummotel.com.au/cafe-mannum|reception@mannummotel.com.au|(08) 8569 1808|
Murraylands|Swan Reach Hotel|Hasse Hill Rd|Swan Reach|5354|http://swanreachhotel.com.au|swanreachhotel@bigpond.com| (08) 8570 2003|
Murraylands|Coonaplyn Hotel|45 Poyntz Terrace|Coonalpyn|5265|https://www.coonalpynhotel.com.au|coonalpyn.hotel@gmail.com|(08) 8571 1006|
Murraylands|Lavande of Callington|25 Montefiore St|Callington|5254|http://www.lavandeofcallington.com.au/about.html|chrissyoflavande@hotmail.com|(O8) 8538 5138|
Limestone Coast|Sorrento's Café|6 Bay Road|Mount Gambier|5290|http://www.sorrentoscafe.com.au|eat@sorrentoscafe.com.au|(08) 8723 0900|
Limestone Coast|The Avenue Inn|17 Fourth Avenue, SA|Naracoorte |5271|https://www.theavenueinn.net|info@theavenueinn.net|1300 283 683|
Limestone Coast|Highlander Restaurant |20 Stewart Terrace, SA|Naracoorte |5271|https://www.william-macintosh.com.au|info@william-macintosh.com.au|(08) 8762 1644|
Limestone Coast|Metro Bakery and Café|13 Commercial Street East, SA|Mount Gambier |5290|http://www.metrobakeryandcafe.com.au|metrobakery@internode.on.net|(08) 8723 3179|
Limestone Coast|Pipers of Penola|58 Riddoch Street|Penola|5277|http://www.pipersofpenola.com.au|pipers@pipersofpenola.com.au|(08) 8737 3999|
Limestone Coast|Presto Eatery|37 Commercial St East|Mount Gambier|5290|http://prestoeatery.com.au/index.html|presto@prestoeatery.com.au|(08) 8723 5030|
Limestone Coast|Sails at Robe|2 Victoria Street|Robe|5267|http://www.sailsatrobe.com.au|sailsatrobe@gmail.com|(08) 87 681 954|
Limestone Coast|Caledonian Inn|1 Victoria St|Robe|5267|https://caledonianinnrobe.com.au|hello@caledonianinnrobe.com.au|(08) 8768 2029|
Limestone Coast|Ottelia |5 Memorial Drive|Coonawarra |5263|https://ottelia.com.au|hello@ottelia.com.au|(08) 8736 3170|
Limestone Coast|Pizza Project|6 Victoria St|Robe|5267|https://vicstpizzaproject.weebly.com|vicstreetpizzaproject@gmail.com|(08) 8768 2081|
Limestone Coast|Thyme at the Lakes|17 Lake Terrace West|Mount Gambier|5290|https://www.thymeatthelakes.com.au|bookings@thymeatthelakes.com.au|(08) 8723 9754|
Limestone Coast|Adventurous Spoon|46 Victoria Street|Robe|5267|https://www.adventurousspoon.com|adventurousspoon@gmail.com|(08) 8768 2488|
Limestone Coast|Upstairs at Hollick|Cnr Riddoch Hwy & Ravenswood Ln|Coonawarra|5263|https://www.hollick.com/en|admin@hollick.com|(0)8 8737 2318 |
Limestone Coast|Tasting room|Canunda Frontage Road|Millicent|5280|http://www.mayurastation.com/dining/|tastingroom@mayurastation.com|0427 284 775|
Limestone Coast|The Barn|747 Glenelg River Rd|Mount Gambier|5290|https://www.barn.com.au|steakhouse@barn.com.au|(08) 8726 9999|
Limestone Coast|Commodore on the Park|Cnr Jubillee Highway and Penola Road|Mount Gambier|5290|http://www.commodoreonthepark.com.au/home/?id=38|reception@commodoreonthepark.com.au| (08) 8724 6400|
Limestone Coast|South Eastern Hotel|235 Commercial St E|Mount Gambier|5290|https://www.southeasternhotel.com.au/index.php|easternoffice@matthewshotels.com.au|(08) 8726 7700|
Limestone Coast|Café Belgiorno|Percy Street, Mount Gambier, South Australia Australia|Mount Gambier|5290|https://caffebelgiorno.com.au|maria@caffebelgiorno.com.au|0407 795 731|
Limestone Coast|1862 Wine Bar and Grill|2 Commercial St W Mount Gambier Hotel|Mount Gambier|5290|https://www.mountgambierhotel.com.au|gambier@matthewshotels.com.au|(08) 8726 7000|
Limestone Coast|Limestone Coast Pantry|Shop 1 20 Harrald St|Mount Gambier|5290|http://limestonecoastpantry.com.au|Info@LimestoneCoastPantry.com.au|(08) 8723 6058|
Limestone Coast|The Park Hotel|163 Commercial Street|Mount Gambier|5290|https://parkhotel.net.au|info@parkhotel.net.au|(08) 8726 7500|
Limestone Coast|The Project|4 Victoria St|Robe|5267|https://www.theprojectrobe.com|theprojectrobe@gmail.com|(08) 8768 2081|
Kangaroo Island|Sunset Food and Wine|4564 Hog Bay Rd|Kangaroo Island|5222|https://sunsetfoodandwine.com|info@sunsetfoodandwine.com|(08) 8553 1378|
Kangaroo Island|Dudley Wines|1153 Cape Willoughby Road|Kangaroo Island|5222|https://www.dudleywines.com.au|info@dudleywines.com|(08) 8553 1333|
Kangaroo Island|Kangaroo Island Fresh Seafood|26 Telegraph Rd|Kangaroo Island|5223|https://www.kifseafoods.com.au|tina@kifseafoods.com|(08) 8553 0177|
Kangaroo Island|Rustic Blue|South Coast Road|Kangaroo Island|5223|http://www.rusticblue.com.au|info@rusticblue.com.au|0408 685 901|
Kangaroo Island|The Corridor Restaurant|4 North Terrace, Penneshaw|Kangaroo Island|5222|https://www.thecorridorrestaurant.com|corridorrestaurant@gmail.com|0452 064 203|
Kangaroo Island|Reflections Restaurant|73 Scenic Dr, American River|Kangaroo Island|5221|https://www.kilodge.com.au/en/dining.html|res@kilodge.com.au|(08) 8553 7053|
Kangaroo Island|Penneshaw Pub|17 North Terrace, Penneshaw|Kangaroo Island|5222|https://www.penneshawhotel.com.au|admin@penneshawhotel.com.au|(08) 8853 1042|
Kangaroo Island|Zone Restaurant | 67 Chapman Terrace, Kingscote|Kangaroo Island|5223|https://auroraresorts.com.au|info@ozonehotelki.com.au|(08) 8553 2011|
Kangaroo Island|Millie Mae's Pantry|1 Nat Thomas St, Penneshaw|Kangaroo Island|5222|https://www.milliemaespantry.com|milliemaespantry@gmail.com|0455 680 292|
Kangaroo Island|Wanderers Rest|Bayview Road, American River|Kangaroo Island|5221|http://wanderersrest.com.au|stay@wanderersrest.com.au|(08) 8553 7140|
Flinders Ranges|Woolshed Restaurant|Flinders Ranges Way, Rawsley Park |Wilpena|5434|https://www.rawnsleypark.com.au/location-and-facilities/woolshed-restaurant/|restaurant@rawnsleypark.com.au|(08) 86480700 |
Flinders Ranges|Prairie Hotel|High Street|Parachilna|5730|http://www.prairiehotel.com.au|reservations@prairiehotel.com.au|1800 331 473|
Flinders Ranges|Quandong Café|31 First St|Quorn|5433|https://quandongapartments.com.au|pat@quandongapartments.com.au|(08) 8648 6155|
Flinders Ranges|Wilpena Pound Resort Dining|Wilpena Pound Rd|Hawker|5434|https://www.wilpenapound.com.au/dining/restaurant/#|reservations@wilpenapound.com.au| 08 8648 0004|
Flinders Ranges|Ikara Lounge|Wilpena Pound Rd|Hawker|5434|https://www.wilpenapound.com.au/dining/restaurant/#|reservations@wilpenapound.com.au| 08 8648 0004|
Flinders Ranges|Teas on the Terrace|7 Railway Tce|Quorn|5434|https://www.teasontheterracequorn.com.au|teasonterracequorn@gmail.com|0428 499 696|
Flinders Ranges|Austral Inn Hotel|16 Railway Tce|Quorn|5434|https://australinn.info/Current/|austral@ihug.com.au|(08) 8648 6017|
Flinders Ranges|Beltana Saltbush Restaurant|Beltana Station, Flinders Ranges National Park|Blinman|5730|http://www.beltanastation.com.au|beltanastation1@bigpond.com|(08) 8675 2256|
Flinders Ranges|Arid Lands Botanic Garden Café|Stuart Highway|Port Augusta|5700|http://www.aalbg.sa.gov.au|info@aalbg.sa.gov.au|(08) 8641 9117|
Flinders Ranges|Archer's Table|11 Loudon Rd|Port Augusta|5700|https://archerstable.com.au|archerstable@internode.on.net|(08) 7231 5657|
Fleurieu Peninsula|The Currant Shed |104 Ingoldby Rd|McLaren Vale|5171|https://www.currantshed.com.au|info@currantshed.com.au|(08) 8383 0232|
Fleurieu Peninsula|Victor's Place |62 Victor Harbor Rd|McLaren Vale|5171|https://www.victorsplace.com.au|admin@victorsplace.com.au|0467 466 212|
Fleurieu Peninsula|d'Arry's Verandah |58 Osborn Rd|McLaren Vale|5171|https://www.darenberg.com.au/darrys-verandah-restaurant/|darrys@darenberg.com.au|(08) 8329 4848|
Fleurieu Peninsula|d'Arenberg Cube|58 Osborn Road|McLaren Vale|5171|https://www.darenberg.com.au/darenberg-cube-restaurant/|bookings@darenberg.com.au|(08) 8329 4888|
Fleurieu Peninsula|Pizzatecca|319 Chalk Hill Rd|McLaren Vale|5171|https://www.pizza-teca.com|eat@pizza-teca.com|(08) 8323 9762|
Fleurieu Peninsula|Boony's Restaurant|U 1 32 Saltfleet St| Port Noarlunga|5167|http://boonysrestaurant.com|theboony@hotmail.com|(08) 8384 6884|
Fleurieu Peninsula|Bombora on the River|94 Barrage Rd|Goolwa|5214|https://www.bomboragoolwa.com|bomboragoolwa@mail.com|(08) 8555 1235|
Fleurieu Peninsula|Serafino |39 Kangarilla Road |McLaren Vale|5171|https://serafinowines.com.au|reservations@serafinomclarenvale.com.au|(08) 8323 8911|
Fleurieu Peninsula|The Salopian Inn|5 McMurtrie Rd|McLaren Vale|5171|https://salopian.com.au|bookings@salopian.com.au|(08) 8323 8769|
Fleurieu Peninsula|Maxwell|19 Olivers Rd Maxwell Winery & Vineyards|McLaren Vale|5171|https://www.maxwellwines.com.au|experience@maxwellwines.com.au|(08) 8323 8200|
Fleurieu Peninsula|Victoria Hotel Bistro |16 Albyn Tce|Strathalbyn|5255|https://www.vichotelstrath.com.au|info@vichotelstrath.com.au|(08) 8536 2202|
Fleurieu Peninsula|Motherduck|U 1 13 Cadell St|Goolwa|5214|http://motherduckcafe.com.au|motherduckcafe@gmail.com|(08) 8555 1462|
Fleurieu Peninsula|Leonards Mill|7869 Main South Rd|Second Valley|5204|https://leonardsmill.com.au|bookings@leonardsmill.com.au|(08) 8598 4184|
Fleurieu Peninsula|Ekhidna Wines|67 Branson Road|McLaren Vale|5171|http://ekhidnawines.com.au/mclaren-vale-cellar-door/|enquiries@ekhidnawines.com.au|0499 002 633|
Fleurieu Peninsula|Coriole Vineyards|Chaffeys Road|McLaren Vale|5171|https://www.coriole.com|contact@coriole.com|(08) 8323 8305|
Fleurieu Peninsula|Vasarelli's|169 Main Rd|McLaren Vale|5171|https://www.vasarelli.com.au|vasarellicellardoor@bigpond.com|(08) 8323 7980|
Fleurieu Peninsula|Star of Greece|1 The Esplanade|Port Willunga|5173|https://starofgreece.com.au|info@starofgreece.com.au|(08) 8557 7420|
Fleurieu Peninsula|Agatha's|1 Gawler St|Port Noarlunga|5167|http://agathascafe.com.au|info@agathascafe.com.au|(08) 83844393|
Fleurieu Peninsula|Nino's|17 Albert Pl|Victor Harbor|5211|http://www.ninoscafe.com.au|ninosvh@bigpond.com|(08) 8552 3501|
Fleurieu Peninsula|The Victory Hotel|Main South Road, Sellicks Hill|Onkaparinga|5174|https://victoryhotel.com.au|victory@victoryhotel.com.au|(08) 8556 3083|
Fleurieu Peninsula|Carmel's Bar and Grill|250 Main Road|McLaren Vale|5171|https://www.carmelsbarandgrill.com.au|info@carmelsbarandgrill.com.au|(08) 8323 8038|
Fleurieu Peninsula|Hortas|Saltfleet Street Beach Front|Port Noarlunga|5167|http://www.hortas.com.au|info@hortas.com.au|(08) 8326 1777|
Fleurieu Peninsula|Tin Shed Café|168 Main Rd|McLaren Vale|5171|https://tinshedcafe.com.au|tinshed@tinshedcafe.com.au|(08) 8323 7343|
Fleurieu Peninsula|The Kitchen Door|281 Main Rd|McLaren Vale|5171|https://www.pennyshill.com.au/Restaurant|info@pennyshill.com.au|(08) 8557 0800|
Fleurieu Peninsula|Mitolo Wines|141 McMurtrie Rd|McLaren Vale|5171|https://www.mitolowines.com.au|restaurant@mitolowines.com.au|(08) 8323 9304|
Fleurieu Peninsula|Appleseed Café|30 High St|Strathalbyn|5255|https://appleseedcafe.com.au|info@appleseedcafe.com.au|(08) 8536 8195|
Fleurieu Peninsula|Anchorage|21 Flinders Pde|Victor Harbor|5211|http://www.anchoragehotel.com.au|info@anchoragehotel.com.au|(08) 8552 5970|
Fleurieu Peninsula|Eat at Whalers|121 Franklin Pde|Victor Harbor|5211|https://www.eatatwhalers.com|info@eatatwhalers.com|(08) 8552 4400|
Fleurieu Peninsula|Blues Restaurant|Main Goolwa Road, Middleton, South Australia Australia|Middleton|5213|https://www.bluesrestaurant.net|bluesrestaurant@hotmail.com|(08) 8554 1800|
Fleurieu Peninsula|Oscars Restaurant|201 Main Rd|McLaren Vale|5171|https://www.oscars.com.au|contactus@oscars.com.au|(08) 8323 8707|
Fleurieu Peninsula|Hotel Elliot|35 The Strand|Port Elliot|5212|http://hotelelliot.com.au|info@hotelelliot.com.au|(08) 8554 2218|
Fleurieu Peninsula|Woodstock Coteire |215 Douglas Gully Rd|McLaren Vale|5171|https://woodstockwine.com.au|woodstock@woodstockwine.com.au|(08) 8383 0156|
Fleurieu Peninsula|Shingleback |3 Stump Hill Rd|McLaren Vale|5171|https://www.shingleback.com.au/winefood|davidg@shingleback.com.au|(08) 8323 9919|
Fleurieu Peninsula|The Winehouse|Lot 95 Wellington Road|Langhome Creek|5251|https://thewinehouse.com.au|info@thewinehouse.com.au|(08) 8537 3441|
Fleurieu Peninsula|Beach Road Wines|309 Seaview Rd|McLaren Vale|5171|https://www.beachroadwines.com.au|admin@beachroadwines.com.au|(08) 83237344|
Fleurieu Peninsula|Smiling Samoyed Brewery|20-22 Hansen Street|Myponga|5202|https://smilingsamoyed.com.au|bookings@smilingsamoyed.com.au|(08) 8558 6166|
Fleurieu Peninsula|Oasis Gardens|726 Langhorne Creek Road Belvidere|Strathalbyn|5255|https://oasisgardensfunctioncentre.com.au|info@oasisgardensfunctioncentre.com.au|(08) 8536 4815|
Fleurieu Peninsula|Old Bush Inn|51 High St|Willunga|5172|https://www.oldbushinn.com|book@oldbushinn.com|(08) 8557 1000|
Fleurieu Peninsula|Russel's Pizza|13 High St|Willunga|5172|https://www.russellspizza.com|russellspizza@internode.on.net|(08) 8556 2571|
Fleurieu Peninsula|Yankalilla Hotel|105 Main South Rd,|Yankalilla|5203|http://yankalillahotel.com.au/dining|kingsley@yankalillahotel.com.au|(08) 8558 2011|
Fleurieu Peninsula|Fleurie's|92 Barrage Rd|Goolwa South|5214|https://www.fleurieus.com|felicity@fleurieufunctions.com.au|(08) 8555 1243|
Fleurieu Peninsula|The Park Restaurant|1 Golf Course Drive Thaxted Park Golf Club, Woodcroft|Onkaparinga|5162|http://www.thaxtedparkgolfclub.com.au/restaurant/|info@thaxtedparkgolfclub.com.au|(08) 8325 0046|
Fleurieu Peninsula|Esculent|195-197 Old South Rd|Reynella|5161|http://www.esculent.com.au|liz@esculent.com.au|(08) 8381 6189|
Fleurieu Peninsula|Polly's Wine Lounge|58 Osborn Road, McLaren Vale|McLaren Vale|5171|https://www.darenberg.com.au|pollys@darenberg.com.au|(08) 8329 4822|
Eyre Peninsula|The Line and Label|31 Whillas Road|Port Lincoln |5606|https://thelineandlabel.com.au|enquiries@thelineandlabel.com.au|(08) 8682 6635|
Eyre Peninsula|The Fresh Fish Place|20 Proper Bay Rd|Port Lincoln |5606|https://freshfishplace.com.au|freshfishplace@portlincolnseafood.com.au|(08) 8682 2166|
Eyre Peninsula|Del Giorno|80 Tasman Tce|Port Lincoln |5606|https://delgiornos.com.au|dine@delgiornos.com.au|( 08) 8683 0577|
Eyre Peninsula|Marina Hotel|13 Jubilee Dr Lincoln Cove Marina|Port Lincoln |5606|https://www.marinahotel.com.au|stay@marinahotel.com.au|(08) 8682 6141|
Eyre Peninsula|Sarins Bar and Restaurant|Port Lincoln Hotel 1 Lincoln Hwy|Port Lincoln |5606|https://www.portlincolnhotel.com.au|sarins@portlincolnhotel.com.au|(08) 8621 2000|
Eyre Peninsula|Beer Garden Brewing|28 - 34 London St|Port Lincoln |5606|http://www.beergardenbrewing.com|info@beergardenbrewing.com|(08) 8683 5303|
Eyre Peninsula|Boston Bean Coffee Co|122 Mortlock Terrace|Port Lincoln |5606|https://bostonbean.com.au|admin@bostonbean.com.au|(08) 8683 5140|
Eyre Peninsula|Peir Hotel|34 Tasman Tce|Port Lincoln |5606|http://portlincolnpier.com.au|pierhotel@perkshotels.com.au|(08) 8682 1322|
Eyre Peninsula|Sharkys|Port Lincoln Hotel 1 Lincoln Highway|Port Lincoln |5606|http://www.portlincolnhotel.com.au/eat-drink/#sharkys|info@portlincolnhotel.com.au|(08) 8621 2000|
Clare Valley|Seed Street Diner|282 Main North Rd|Clare|5453|http://seed.kitchen|eat@seed.kitchen|(08) 8842 2323|
Clare Valley|Mr Mick|7 Dominic St|Clare|5453|https://www.mrmick.com.au|info@mrmick.com.au|(08) 8842 2555|
Clare Valley|Skillogalee Winery|23 Trevarrick Rd, Sevenhill|Clare|5453|http://www.skillogalee.com.au|info@skillogalee.com.au|(08) 8843 4311|
Clare Valley|Umbria Rustic Italian|308b Main North Rd|Clare|5453|https://www.umbriarestaurant.com.au|eat@umbriarestaurant.com.au|(08) 8812 1718|
Clare Valley|Conners |White Hut Road|Clare|5453|https://www.clarecountryclub.com.au/offers/bed-breakfast/|info@clarecountryclub.com.au|(08) 8842 1060|
Clare Valley|Slate Restaurant|233 Polish Hill Road|Sevenhill|5453|https://slate.pikeswines.com.au|SLATE@PIKESWINES.COM.AU|(08) 88434044|
Clare Valley|Sevenhill Hotel|Main N Rd|Sevenhill|5453|https://www.sevenhillhotel.com.au|sales@sevenhillhotel.com.au|(08) 8843 4217|
Clare Valley|Wild Saffron|288 Main North Rd|Clare|5453|http://wildsaffron.com.au|eat@wildsaffron.com.au|08 8842 4255|
Clare Valley|Bush Devine Café| 752 Jolly Way|Polish Hill River|5453|https://www.paulettwines.com.au|info@paulettwines.com.au|(08) 88434 328 |
Clare Valley|Rising Sun|19 Main North Road|Auburn|5451|http://www.therisingsunhotel.com.au|ally@therisingsunhotel.com.au|(08) 8849 2015|
Clare Valley|Terroir|21 Main North Road|Auburn|5451|https://terroirauburn.com.au|terroirauburn@gmail.com|(08) 8849 2509|
Clare Valley|Taminga Hotel|302 Main North Road|Clare|5453|https://www.tamingahotel.com.au|taminga@gfamilyhotels.com.au|(08) 8842 2808|
Clare Valley|Reillys |Corner Leasingham Road and Hill Street|Mintaro|5415|https://www.reillyswines.com.au|sales@reillyswines.com.au| (08) 8843 9013 |
Clare Valley|Watervale Hotel|37 Main North Rd|Watervale|5452|https://watervalehotel.com.au|nicola@watervalehotel.com.au|(08) 8843 0229|
Barossa Valley|Hently Farm|Gerald Roberts Road Jenke Road|Seppeltsfield|5355|https://www.hentleyfarm.com.au|dine@hentleyfarm.com.au|(08) 8562 8427|
Barossa Valley|Ferment Asian|90 Murray St|Tanunda|5352|https://fermentasian.com.au|bookings@fermentasian.com.au|(08) 8563 0765|
Barossa Valley|Harvest Kitchen|Corner of Magnolia and Light Pass Roads|Tanunda|5352|http://www.harvest-kitchen.com.au|info@harvest-kitchen.com.au|(08) 7523 3950|
Barossa Valley|Apellation |375 Seppeltsfield Rd|Marananga|5355|http://thelouise.com.au/dine/|dine@appellation.com.au|(08) 8562 4144|
Barossa Valley|Vinter's Bar & Grill|Cnr Stockwell & Nuriootpa Roads|Angaston|5353|http://www.vintners.com.au|chef@vintners.com.au|(08) 8564 2488|
Barossa Valley|Barossa Valley Brewing |2A Murray St Heinemann Parks|Tanunda|5352|http://bvbeer.com.au/home/|info@bvbeer.com.au|0410 290 236|
Barossa Valley|The Table Café|28 - 30 Barossa Valley Way|Lyndoch|5351|http://thetablecafe.com.au|lynley_down@hotmail.com|(08) 8524 4074|
Barossa Valley|Our Table|Barossa Valley Way Jacob's Creek|Rowland Flat|5350|https://www.jacobscreek.com/en-au/restaurant|ourhome@jacobscreek.com|(08) 8521 3000|
Barossa Valley|The Lord Lyndoch|23 Barossa Valley Way|Lyndoch|5351|https://www.thelordlyndoch.com|bookings@lordlyndoch.com|(08) 8524 5440|
Barossa Valley|Fino at Seppeltsfield|730 Seppeltsfield Rd|Seppeltsfield|5355|https://fino.net.au|seppeltsfield@fino.net.au|(08) 8562 8528|
Barossa Valley|Hermans 1847|159 Hermann Thumm Dr Chateau Yaldara|Lyndoch|5351|https://www.1847wines.com|restaurant@1847wines.com|(08) 8524 0250|
Barossa Valley|Miranda Restaurant|Barossa Valley Way|Rowland Flat|5352|https://www.loumirandaestate.com.au|lou@loumirandaestate.com.au|(08) 8524 4537|
Barossa Valley|Musque Food & Wine|109 Murray St Shop 1|Tanunda|5355|https://www.musque.com.au|enquiries@musque.com.au|(08) 7513 7740|
Barossa Valley|Casa Carboni |67 Murray St|Angaston|5353|https://www.casacarboni.com.au/enoteca-wine-food-shop/|fiona@casacarboni.com.au|0415 157 669|
Barossa Valley|Wanera Wine Bar|65 Murray St|Angaston|5353|http://www.wanerawinebar.com.au|info@wanerawinebar.com.au|(08) 8564 3275|
Barossa Valley|Char Bossa|89 Murray St|Tanunda|5352|https://www.charbarossa.com.au|dine@charbarossa.com.au|(08) 7513 7885|
Barossa Valley|First Drop|30-38 Barossa Valley Way|Nuriootpa|5352|https://www.firstdropwines.com|hotb@firstdropwines.com|(08) 8562 3324|
Barossa Valley|Ember Pizza|18 - 28 Tanunda Road Provenance Barossa|Nuriootpa|5355|https://emberpizza.com.au|hello@ember.pizza|(08) 7523 3960|
Barossa Valley|Salter's Kitchen|Murray Street|Angaston|5353|https://www.saltramwines.com.au/en-au/visit-us/salters-restaurant.html|salterskitchen@saltramwines.com.au|(08) 8561 0216|
Barossa Valley|The Eatery|Pheasant Farm Rd|Nuriootpa|5355|https://thefarmeatery.com|feedme@thefarmeatery.com|(08) 8562 1902|
Barossa Valley|Vino Lokal|64 Murray Street|Tanunda|5352|http://www.vinolokal.com|wineroom@vinolokal.com|(08) 8563 3935|
Barossa Valley|Lyndoch Hill|Corner of Barossa Valley Way & Hermann Thumm Drive|Lyndoch|5351|https://www.lyndochhill.com|bookings@lyndochhill.com|(08) 8524 4268|
Barossa Valley|St. Hugo|2141 Barossa Valley Way|Rowland Flat|5352|https://www.sthugo.com/en|enquiries@sthugo.com|(08) 8115 9200|
Barossa Valley|Murray's BBQ & Grill|155 Murray St|Gawler|5118|http://www.exchangehotelgawler.com.au/murrays/|enquiries@exchangehotelgawler.com.au|(08) 8522 1889|
Barossa Valley|The Cellar Kitchen|42 Pioneer Ave Via Golf Links Rd|Rowland Flat|5352|http://www.thecellarkitchen.com.au|h3026@accor.com|(08) 8524 0025|
Barossa Valley|Three 75 Bar|375 Seppeltsfield Rd|Marananga|5355|http://thelouise.com.au/three75/|bar@three75.com.au|(08) 8562 2115|
Barossa Valley|Café Sia Gawler |Shop 10/4 Tulloch Road|Gawler |5116|http://www.cafesia.com.au|gawler@cafesia.com.au|(08) 8522 6990|
Barossa Valley|The Greenock|2 Adelaide Road|Greenock |5360|http://thegreenock.com.au|contact@thegreenock.com.au|(08) 8562 8136 |
Adelaide|Ba:m Adelaide|20 Currie St|Adelaide|5000|https://www.bamadelaide.com|bam.australia.adl@gmail.com|(08) 8410 5237|
Adelaide Hills|Hardy's Verandah |1 Mawson Dr|Crafers|5152|https://www.hardysverandah.com.au|dine@hardysverandahrestaurant.com.au|(08) 8339 6777|
Adelaide Hills|Pike & Joyce|730 Mawson Road|Lenswood|5240|https://www.pikeandjoyce.com.au|info@pikeandjoyce.com.au|(08) 8389 8102|
Adelaide Hills|The Lane Vineyard|Ravenswood Lane|Hahndorf|5245|https://www.thelane.com.au|welcome@thelane.com.au|(08) 8388 1250|
Adelaide Hills|Lobethal Bierhouse|Main St|Lobethal|5241|http://www.bierhaus.com.au|info@bierhaus.com.au|(08) 8389 5570 |
Adelaide Hills|The White House|90 Main Street|Hahndorf|5245|http://www.thewhitehousehahndorf.com.au|hello@thewhitehousehahndorf.com.au|(08) 7111 0030|
Adelaide Hills|The Crafters Hotel|4 Main St SA|Crafers|5152|https://www.crafershotel.com.au|info@crafershotel.com.au|(08) 8339 2050|
Adelaide Hills|The Uradia Hotel|1198 Greenhill Rd|Uraidla|5142|https://uraidlahotel.com.au|info@uraidlahotel.com.au|(08) 8390 0500|
Adelaide Hills|Hahn and Hamlin|79 Main Street|Hahndorf|5245|https://hahnandhamlin.com.au|hello@hahnandhamlin.com.au|(08) 8388 7972|
Adelaide Hills|Maximillians Restaurant|Main Street|Verdun|5245|https://maximilians.com.au|info@maximilians.com.au|(08) 8388 7777|
Adelaide Hills|The Summit Café|Mt Lofty Lookout|Crafers|5152|http://www.mountloftysummit.com|enquiries@mtloftysummit.com|(08) 8339 2600|
Adelaide Hills|The Locavore|49 Mount Barker Rd|Stirling|5152|https://www.locavore.com.au|info@locavore.com.au|(08) 8339 4416|
Adelaide Hills|The Bridgewater Mill|Mount Barker Road|Bridgewater|5155|https://www.thebridgewatermill.com.au|hello@thebridgewatermill.com.au|(08) 8339 9200|
Adelaide Hills|German Spoon|28 Mount Barker Rd|Hahndorf|5245|https://germanspoon.com.au|shail.shukla@germanspoon.com.au|(08) 7280 0086|
Adelaide Hills|Miss Perez|2 Druid Ave|Stirling|5152|http://www.missperez.com.au|info@missperez.com.au|(08) 7225 0264|
Adelaide Hills|Three Gums Bistro|145A Mount Barker Rd Hahndorf Resort|Hahndorf|5245|https://www.threegumsbistro.com|enquiries@threegumsbistro.com|(08) 8388 1144|
Adelaide Hills|Geppetto's|94 Mount Barker Rd|Hahndorf|5245|http://www.gepettosathahndorf.com.au|enquiries@gepettosathahndorf.com.au|(08) 8388 7558|
Adelaide Hills|The Gallery at Bird in Hand|150 Pfeiffer Rd|Woodside|5244|http://www.birdinhand.com.au/experience|cellardoor@birdinhand.com.au|(08) 8389 9488|
Adelaide Hills|Brother Bear Café|10 Gawler St|Mount Barker|5251|https://brotherbearcafe.com.au|brotherbearcafe@gmail.com|(08) 8398 3781|
Adelaide Hills|Arthur Waterhouse Lounge|1 Mawson Dr|Crafers|5152|http://www.hardysverandah.com.au|dine@hardysverandahrestaurant.com.au|(08) 8399 6777|
Adelaide Hills|Mc & K|Mylkappa Rd|Birdwood|5234|https://www.mcandk.com|info@mcandk.com|0451 176 864|
Adelaide Hills|Patch Kitchen & Garden|143 Mount Barker Road|Stirling |5152|http://www.patchkitchen.com.au|bookings@patchkitchen.com.au|(08) 8339 8087|
Adelaide Hills|Summertown Aristologist|1097 Greenhill Road|Summertown |5141|http://thesummertownaristologist.com/index.html|drinking@thesummertownaristologist.com|0477 410 105|
Adelaide|Messy Tomato|151 Flinders Street|Adelaide|5000|https://catering.messytomato.com.au|hello@messytomato.com.au|0403 643 452|
Adelaide|Luigi Delicatessan|43 Franklin St|Adelaide|5000|http://luigideli.com|luigi@luigideli.com|0412 458 828|
Adelaide|B'Churrasco Adelaide|10-12 East Terrance|Adelaide|5000|https://bchurrasco.com.au/melbourne/|adelaide@bchurrasco.com.au|(08) 8232 5111|
Adelaide|Georges on Waymouth|20 Waymouth St|Adelaide|5000|https://www.georgesonwaymouth.com.au|info@georgesonwaymouth.com.au|(08) 8211 6960|
Adelaide|La Tombola|61 Unley Rd|Parkside|5063|https://latombola.com.au|info@latombola.com.au|(08) 8271 6400|
Adelaide|Peel St|9 Peel St|Adelaide|5000|http://www.peelst.com.au|hello@peelst.com.au|(08) 8231 8887|
Adelaide|A Hereford Beefstouw|143 Hutt St|Adelaide|5000|https://beefstouw.com/restaurants/adelaide-australien|adelaide@a-h-b.com.au|(08) 8232 6868|
Adelaide|Marrakech Restaurant|91 O'Connell St|Adelaide|5006|https://www.marrakechrestaurant.com.au|marrakech@post.com|(08) 8361 9696|
Adelaide|The Pantry on Egmont|2 Egmont Tce|Hawthorn|5062|https://thepantry.net.au|thepantry@thepantry.net.au|(08) 8271 4409|
Adelaide|Delicatessan|12 Waymouth St|Adelaide|5000|http://www.delicatessenbar.com.au|hello@delicatessenbar.com.au|(08) 8211 8871|
Adelaide|Gallery |30 Waymouth St|Adelaide|5000|https://galleryadelaide.com.au|info@galleryadelaide.com.au|(08) 8211 8820|
Adelaide|Orana|285 Rundle St Upper Level|Adelaide|5000|https://restaurantorana.com|info@restaurantorana.com|(08) 8232 3444|
Adelaide|The Playford Restaurant|120 North Tce|Adelaide|5000|https://theplayford.com.au/dining-and-facilities/the-playford-restaurant/|restaurant@theplayford.com.au|(08) 8213 8844|
Adelaide|Penfolds Magill Estate|78 Penfold Road|Magill|5072|https://www.magillestaterestaurant.com|magillestaterestaurant@penfolds.com.au|(08) 8301 5551|
Adelaide|Estia|255 Seaview Rd Henley Beach Square|Henley|5022|https://www.estia.com.au|email@estia.com.au|(08) 8353 2875|
Adelaide|Apoteca|118 Hindley St|Adelaide|5000|https://apoteca.com.au|drink@apoteca.com.au|(08) 8212 9099|
Adelaide|Lenzerheide Restaurant|146 Belair Rd|Hawthorn|5062|https://www.lenzerheide.com.au|info@lenzerheide.com.au|(08) 8373 3711|
Adelaide|Mayflower Restaurant|45 King William St Mayfair Hotel|Adelaide|5000|https://www.mayfairhotel.com.au/mayflower-restaurant|stay@mayfairhotel.com.au|(08) 8210 8899|
Adelaide|Botanic Gardens Restaurant|Plane Tree Drive|Adelaide|5000|http://botanicgardensrestaurant.com.au|restaurant@botanicgardensrestaurant.com.au|(08) 8223 3952|
Adelaide|Parlamento|140 North Tce Corner North Terrace and Bank Street|Adelaide|5000|https://www.parlamento.com.au|info@parlamento.com.au|(08) 8231 3987|
Adelaide|Chianti|160 Hutt St 160 Hutt Street|Adelaide|5000|https://www.chianti.net.au|chianti@chianti.net.au|(08) 8232 7955|
Adelaide|The Himalayan Kitchen|73 Melbourne St|North Adelaide|5006|https://thehimalayankitchen.com|info.thehimalayankitchen@gmail.com|(08) 8267 3037|
Adelaide|Bread & Bone Wood Grill|15 Peel St|Adelaide|5000|https://www.breadandbone.com.au|hello@breadandbone.com.au|(08) 8231 8535|
Adelaide|Borsa Pasta Cucina|Plaza Level Shop G 1 25 Grenfell St|Adelaide|5000|https://www.borsapastacucina.com|eat@borsapastacucina.com|(08) 8211 6572|
Adelaide|Culshaws Restaurant |55 Frome St Majestic Roof Garden Hotel|Adelaide|5000|http://www.culshaws.com.au|culshaws@majestichotels.com.au|(08) 8100 4495|
Adelaide|Kaffana|27 Gilbert Place|Adelaide|5000|https://www.kaffana.com.au|info@kaffana.com.au|(08) 7132 1816|
Adelaide|Amalfi|29 Frome St East End|Adelaide|5000|https://www.amalfipizzeria.com.au|amalfiadelaide@gmail.com|(08) 8223 1948|
Adelaide|La Bocca|150 North Terrace|Adelaide|5000|https://adelaide.laboca.com.au|info@laboca.com.au| (08) 8461 0394|
Adelaide|Udaberri|11 Leigh St|Adelaide|5000|http://udaberri.com.au|fiestas@udaberri.com.au|(08) 8410 5733|
Adelaide|Gaucho's|91 Gouger St|Adelaide|5000|https://gauchos.com.au|gauchos91@bigpond.com.au|(08) 8231 2299|
Adelaide|The Little Hunter|25 Victoria Street|Adelaide|5000|http://thelittlehunter.com.au|bookings@thelittlehunter.com.au|(08) 8211 8464|
Adelaide|Stamp's |12A Welbourne St|South Adelaide|5062|https://www.stampsrestaurant.com.au|info@stampsrestaurant.com.au|(08) 8272 8815|
Adelaide|Parisi's|138 King William Rd|South Adelaide|5062|http://www.parisis.com.au|food@parisi.net.au|(08) 8373 5142|
Adelaide|Pink Moon Saloon|21 Leigh St|Adelaide|5000|http://www.pinkmoonsaloon.com.au|hello@pinkmoonsaloon.com.au|0473 745 570|
Adelaide|Clever Little Tailor |19 Peel St|Adelaide|5000|http://www.cleverlittletailor.com.au|hello@cleverlittletailor.com.au|0407 111 857|
Adelaide|The British Hotel |58 Finniss St|Adelaide|5006|https://www.britishhotel.com.au|info@britishhotel.com.au|(08) 8267 2188|
Adelaide|Lady Burra Brewhouse|4 Topham Mall|Adelaide|5000|http://www.ladyburrabrewhouse.com.au|events@ladyburrabrewhouse.com.au|(08) 8231 8928|
Adelaide|Tresury 1860|144 King William St|Adelaide|5000|http://www.treasury1860.com.au|hello@treasury1860.com.au|(08) 7225 1722|
Adelaide|Herringbone|72 Halifax St|Adelaide|5000|http://www.herringbonerestaurant.com.au|hello@herringbonerestaurant.com.au|0428 926 977|
Adelaide|Coal Cellar & Grill|233 Victoria Square|Adelaide|5000|https://coalcellarandgrill.com.au|info@coalcellarandgrill.com.au|(08) 8237 0697|
Adelaide|Salt Restaurant|16 Hindmarsh Sq Pullman Adelaide Hotel|Adelaide|5000|https://restaurants.accorhotels.com/gb/restaurant-B217_R001-salt-restaurant-adelaide.shtml|hb217-fb@accor.com|(08) 8206 8828|
Adelaide|Howard Vineyard|53 Bald Hills Road|Adelaide|5252|http://www.howardvineyard.com|marketing@howardvineyard.com|(08) 8188 0203|
Adelaide|Mother Vine|22-26 Vardon Ave|Adelaide|5000|https://www.mothervine.com.au|wine@mothervine.com.au|(08) 8227 2273|
Adelaide|Secrets by the Sea|207 The Esplanade|Henley|5022|https://www.secretsbythesea.com.au|secretsbythesea207@gmail.com|(08) 8356 8003|
Adelaide|Cumbia Bar|44-60 Gouger St GR 43 Adelaide Central Market|Adelaide|5000|http://www.cumbia.com.au|info@cumbia.com.au|0404 131 418|
Adelaide|San Giorgio|217 Rundle St, Adelaide, South Australia 5000 Australia|Adelaide|5000|https://sangiorgio.com.au|info@sangiorgio.com.au|(08) 8223 1700|
