region_name|name|address|suburb|postcode|link|email|phone|banner
Geelong|At The Heads|Jetty Rd; Barwon Heads|Barwon Heads||attheheads.com.au||03 5254 1277|https://res.cloudinary.com/dkowfxwpp/image/upload/v1580643734/wwia/region%20banners/great_ocean_road_metp89.jpg
Geelong|Basils Farm|43-53 Nye Road; Swan Bay|Swan Bay||basilsfarm.com.au|info@basilsfarm.com.au|03 5258 4280|https://res.cloudinary.com/dkowfxwpp/image/upload/v1580643705/wwia/region%20banners/barossa_valley_x0vejh.jpg
Geelong|Charlie Noble|5/4 Wharf St East; Queenscliff|Queenscliff||charlienoble.com.au|cafe@charlienoble.com.au|03 5258 5161|https://res.cloudinary.com/dkowfxwpp/image/upload/v1580643712/wwia/region%20banners/gold_coast_pftzh1.jpg
Geelong|Little Creatures Brewery|221 Swanston St; Geelong South|Geelong South||littlecreatures.com.au|creaturescanteen@littlecreatures.com.au|03 5202 4008|https://res.cloudinary.com/dkowfxwpp/image/upload/v1580643721/wwia/region%20banners/alice_springs_vv8hsx.jpg
Geelong|Oakdene Vineyards|255 Grubb Rd; Wallington|Wallington||oakdene.com.au|info@oakdene.com.au|03 5255 1255|https://res.cloudinary.com/dkowfxwpp/image/upload/v1580643749/wwia/region%20banners/launceston_and_the_north_idbg7e.jpg
Geelong|Terindah Estate|90 McAdams Ln; Bellarine|Bellarine||terindahestate.com.au||03 5251 5536|https://res.cloudinary.com/dkowfxwpp/image/upload/v1580643721/wwia/region%20banners/alice_springs_vv8hsx.jpg
Geelong|Wye General Store|35 Great Ocean Rd; Wye River|Wye River||wyerivergeneralstore.com.au|info@thewyegeneral.com|03 5289 0247|https://res.cloudinary.com/dkowfxwpp/image/upload/v1580643741/wwia/region%20banners/hobart_and_the_south_kqlwgg.jpg
Geelong|Nicol's Paddock|35 Waurn Ponds Dr; Waurn Ponds|Waurn Ponds||saintregis.com.au|info@nicolspaddock.com.au|0432 085 404|https://res.cloudinary.com/dkowfxwpp/image/upload/v1580643771/wwia/region%20banners/the_murray_ffm5r7.jpg
Ballarat|Blue Pyrenees Estate|Vinoca Rd; Avoca|Avoca||bluepyreneesestate.com.au|reception@bluepyrenees.com.au|03 5465 1111|https://res.cloudinary.com/dkowfxwpp/image/upload/v1580643706/wwia/region%20banners/darwin_dirruw.jpg
Ballarat|Grampians Estate|1477 Western Hwy; Great Western|Great Western||grampiansestate.com.au|info@grampiansestate.com.au|03 5354 6245|https://res.cloudinary.com/dkowfxwpp/image/upload/v1580643771/wwia/region%20banners/the_murray_ffm5r7.jpg
Ballarat|Harvest Halls Gap|2 Heath St; Halls Gap|Halls Gap||harvesthg.com.au||03 5356 4782|https://res.cloudinary.com/dkowfxwpp/image/upload/v1580643768/wwia/region%20banners/the_high_country_udwzpb.jpg
Ballarat|Hop Temple|24-28 Armstong St North; Ballarat|Ballarat||hoptemple.com.au|info@hoptemple.com.au|03 5317 7158|https://res.cloudinary.com/dkowfxwpp/image/upload/v1580643754/wwia/region%20banners/goldfields_ne0hru.jpg
Ballarat|Old Green Bean|179 Lyttleton Tce; Bendigo|Bendigo||oldgreenbean.com|sally@oldgreenbean.com|03 5444 3173|https://res.cloudinary.com/dkowfxwpp/image/upload/v1580643722/wwia/region%20banners/greater_melbourne_jmn16p.jpg
Ballarat|Red Rock Olives|3594 Ararat-Halls Gap Rd; Pomonal|Pomonal||redrockolives.com.au|info@redrockolives.com.au|0414 887 755|https://res.cloudinary.com/dkowfxwpp/image/upload/v1580643717/wwia/region%20banners/brisbane_wemqit.jpg
High Country|Bright Brewery|121 Great Alpine Rd; Bright|Bright||brightbrewery.com.au|info@brightbrewery.com.au|03 5755 1301|https://res.cloudinary.com/dkowfxwpp/image/upload/v1580643768/wwia/region%20banners/the_high_country_udwzpb.jpg
High Country|Chrismont|251 Upper King River Rd; Cheshunt|Cheshunt||chrismont.com.au|info@chrismont.com.au|03 5729 8220|https://res.cloudinary.com/dkowfxwpp/image/upload/v1580643771/wwia/region%20banners/the_murray_ffm5r7.jpg
High Country|Feathertop Winery|619 Great Alpine Rd; Porepunkah|Porepunkah||feathertopwinery.com.au|hello@feathertopwinery.com.au|03 5756 2356|https://res.cloudinary.com/dkowfxwpp/image/upload/v1580643771/wwia/region%20banners/the_murray_ffm5r7.jpg
High Country|Hub 62|62 Main St; Chiltern|Chiltern||facebook.com/hub62||03 5726 1207|https://res.cloudinary.com/dkowfxwpp/image/upload/v1580643744/wwia/region%20banners/mornington_peninsula_fs6bag.jpg
High Country|Jones Winery & Vineyard|61 Jones Road; Rutherglen|Rutherglen||joneswinery.com|jones@joneswinery.com|02 6032 8496|https://res.cloudinary.com/dkowfxwpp/image/upload/v1580643754/wwia/region%20banners/phillip_island_ueej6j.jpg
High Country|Milawa Cheese Company|17 Factory Road; Milawa|Milawa||milawacheese.com.au|info@milawacheese.com.au|03 5727 3589|https://res.cloudinary.com/dkowfxwpp/image/upload/v1580643707/wwia/region%20banners/adelaide_uzreqi.jpg
High Country|The Pickled Sisters Café|Cofield Wines, Distillery Rd; Wahgunyah|Wahgunyah||pickledsisters.com.au|cafe@pickledsisters.com.au|02 6033 2377|https://res.cloudinary.com/dkowfxwpp/image/upload/v1580643715/wwia/region%20banners/gippsland_ohbigm.jpg
High Country|St Leonards Vineyards|201 St Leonards Road; Wahgunyah|Wahgunyah||stleonardswine.com.au|cellardoor@stleonardswine.com.au|1800 021 621|https://res.cloudinary.com/dkowfxwpp/image/upload/v1580643707/wwia/region%20banners/adelaide_uzreqi.jpg
High Country|Stefano's|Cellars of the Grand Hotel, Langtree Avenue; Mildura|Mildura||stefano.com.au|info@stefano.com.au|03 5022 0881|https://res.cloudinary.com/dkowfxwpp/image/upload/v1580643768/wwia/region%20banners/the_high_country_udwzpb.jpg
High Country|Taste at Rutherglen|121B Main St; Rutherglen|Rutherglen|||||https://res.cloudinary.com/dkowfxwpp/image/upload/v1580643757/wwia/region%20banners/perth_surrounds_kxywzw.jpg
High Country|Spoons Riverside|125 Monash Drive; Swan Hill|Swan Hill||spoonsriverside.com.au|email@spoonsriverside.com.au|03 5032 2601|https://res.cloudinary.com/dkowfxwpp/image/upload/v1580643715/wwia/region%20banners/gippsland_ohbigm.jpg
High Country|Provenance|86 Ford St; Beechworth|Beechworth||theprovenance.com.au|info@theprovenance.com.au|03 5728 1786|https://res.cloudinary.com/dkowfxwpp/image/upload/v1580643741/wwia/region%20banners/hobart_and_the_south_kqlwgg.jpg
Macedon Ranges|The Cosmopolitan Hotel|Cnr High St & Cosmo Road; Trentham|Trentham||thecosmopolitanhotel.com.au|enquiries@thecosmopolitanhotel.com.au|03 5424 1516|https://res.cloudinary.com/dkowfxwpp/image/upload/v1580643771/wwia/region%20banners/the_murray_ffm5r7.jpg
Macedon Ranges|Daylesford Cider|155 Dairy Flat Rd; Musk|Musk||daylesfordcider.com.au|enquiries@daylesfordcider.com.au|03 5348 2275|https://res.cloudinary.com/dkowfxwpp/image/upload/v1580643715/wwia/region%20banners/gippsland_ohbigm.jpg
Macedon Ranges|Duck Duck Goose & Larder|17-21 Piper St; Kyneton|Kyneton||duckduckgooseandlarder.com.au|info@duckduckgooseandlarder.com.au|03 5422 1653|https://res.cloudinary.com/dkowfxwpp/image/upload/v1580643754/wwia/region%20banners/phillip_island_ueej6j.jpg
Macedon Ranges|Gisborne Peak Winery|69 Short Rd; Gisborne|Gisborne||gisbornepeakwines.com.au|info@gisbornepeakwines.com.au|03 5428 2228|https://res.cloudinary.com/dkowfxwpp/image/upload/v1580643749/wwia/region%20banners/launceston_and_the_north_idbg7e.jpg
Macedon Ranges|Lavandula Swiss Italian Farm|350 Hepburn-Newstead Rd; Shepherds Flat|Shepherds Flat||lavandula.com.au|mail@lavandula.com.au|03 5476 4393|https://res.cloudinary.com/dkowfxwpp/image/upload/v1580643757/wwia/region%20banners/perth_surrounds_kxywzw.jpg
Macedon Ranges|Sault |2349 Ballan Daylesford Rd; Daylesford|Daylesford||sault.com.au|enquiries@sault.com.au|03 5348 6555|https://res.cloudinary.com/dkowfxwpp/image/upload/v1580643734/wwia/region%20banners/great_ocean_road_metp89.jpg
Macedon Ranges|Tuki Trout Farm|60 Stoney Rise Rd; Smeaton |Smeaton ||tuki.com.au|info@tuki.com.au|03 5345 6233|https://res.cloudinary.com/dkowfxwpp/image/upload/v1580643741/wwia/region%20banners/hobart_and_the_south_kqlwgg.jpg
Mornington Peninsula|Donna Maria|52 Cook St; Flinders|Flinders||donnamaria.com.au||03 5989 0119|https://res.cloudinary.com/dkowfxwpp/image/upload/v1580643722/wwia/region%20banners/greater_melbourne_jmn16p.jpg
Mornington Peninsula|The Cups Estate|269 Browns Rd; Fingal|Fingal||thecupsestate.com.au||1300 131 741|https://res.cloudinary.com/dkowfxwpp/image/upload/v1580643771/wwia/region%20banners/the_murray_ffm5r7.jpg
Mornington Peninsula|DOC|22 Main St; Mornington|Mornington||docgroup.net|mornington@docgroup.net|03 5977 0988|https://res.cloudinary.com/dkowfxwpp/image/upload/v1580643734/wwia/region%20banners/margaret_river_southwest_ljcref.jpg
Mornington Peninsula|The Epicurean Red Hill|165 Shoreham Rd; Red Hill South|Red Hill South||theepicurean.com.au|info@theepicurean.com.au|03 5989 4000|https://res.cloudinary.com/dkowfxwpp/image/upload/v1580643722/wwia/region%20banners/greater_melbourne_jmn16p.jpg
Mornington Peninsula|Green Olive at Red Hill|1180 Mornington Flinders Rd; Main Ridge|Main Ridge||greenolive.com.au||03 5989 2992|https://res.cloudinary.com/dkowfxwpp/image/upload/v1580643782/wwia/region%20banners/the_grampians_ojkaom.jpg
Mornington Peninsula|Le Bouchon|10 Russel St; Balnarring|Balnarring|||info@lebouchon.com.au|03 5983 2012|https://res.cloudinary.com/dkowfxwpp/image/upload/v1580643734/wwia/region%20banners/margaret_river_southwest_ljcref.jpg
Mornington Peninsula|Main Ridge Dairy|295 Main Creek Rd; Main Ridge|Main Ridge||mainridgedairy.com.au||0409 013 807|https://res.cloudinary.com/dkowfxwpp/image/upload/v1580643782/wwia/region%20banners/the_grampians_ojkaom.jpg
Mornington Peninsula|Montalto|33 Shoreham Rd; Red Hill South|Red Hill South||montalto.com.au||03 5989 8412|https://res.cloudinary.com/dkowfxwpp/image/upload/v1580643715/wwia/region%20banners/gippsland_ohbigm.jpg
Mornington Peninsula|Paringa Estate|44 Paringa Rd; Red Hill South|Red Hill South||paringaestate.com.au|info@paringaestate.com.au|03 5989 2669|https://res.cloudinary.com/dkowfxwpp/image/upload/v1580643736/wwia/region%20banners/hunter_valley_xb7ghq.jpg
Mornington Peninsula|Yabby Lake Vineyard|86-112 Tuerong Rd; Tuerong|Tuerong||yabbylake.com|cellardoor@yabbylake.com|03 5974 3729|https://res.cloudinary.com/dkowfxwpp/image/upload/v1580643734/wwia/region%20banners/margaret_river_southwest_ljcref.jpg
Yarra Valley|Coldstream Brewery|94 Maroondah Hwy; Coldstream|Coldstream||coldstreambrewery.com.au|info@coldstreambrewery.com.au|03 9739 1794|https://res.cloudinary.com/dkowfxwpp/image/upload/v1580643782/wwia/region%20banners/the_grampians_ojkaom.jpg
Yarra Valley|Greenstone Vineyards|179 Glenview Rd; Yarra Glen|Yarra Glen||greenstonevineyards.com.au||03 9730 1022|https://res.cloudinary.com/dkowfxwpp/image/upload/v1580643775/wwia/region%20banners/yarra_valley_hhk1ob.jpg
Yarra Valley|Healesville Hotel|256 Maroondah Hwy; Healesville|Healesville||yarravalleyharvest.com.au|info@healesvillehotel.com.au|03 5962 4002|https://res.cloudinary.com/dkowfxwpp/image/upload/v1580643756/wwia/region%20banners/nsw_north_coast_zzmcg2.jpg
Yarra Valley|Mandala Wines|1568 Melba Highway; Dixons Creek|Dixons Creek||mandalawines.com.au||03 5965 2016|https://res.cloudinary.com/dkowfxwpp/image/upload/v1580643734/wwia/region%20banners/great_ocean_road_metp89.jpg
Yarra Valley|Medhurst Wines|24-26 Medhurst Rd; Gruyere|Gruyere||medhurstwines.com.au|office@medhurstwines.com.au|03 5964 9022|https://res.cloudinary.com/dkowfxwpp/image/upload/v1580643706/wwia/region%20banners/darwin_dirruw.jpg
Yarra Valley|Meletos|12 St Huberts Rd; Coldstream|Coldstream||meletos.com|info@meletos.com |03 9739 1888|https://res.cloudinary.com/dkowfxwpp/image/upload/v1580643754/wwia/region%20banners/goldfields_ne0hru.jpg
Yarra Valley|Stones of the Yarra Valley|14 St Huberts Rd; Coldstream|Coldstream||stonesoftheyarravalley.com|info@stonesoftheyarravalley.com|03 8727 3000|https://res.cloudinary.com/dkowfxwpp/image/upload/v1580643706/wwia/region%20banners/darwin_dirruw.jpg
Yarra Valley|Yarra Valley Dairy|70-80 McMeikans Rd; Yering|Yering||yvd.com.au|mail@yvd.com.au|03 9739 1222|https://res.cloudinary.com/dkowfxwpp/image/upload/v1580643771/wwia/region%20banners/the_murray_ffm5r7.jpg
Yarra Valley|Yering Station|38 Mjelba Highway; Yarra Glen|Yarra Glen||yering.com|info@yering.com|03 9730 0100|https://res.cloudinary.com/dkowfxwpp/image/upload/v1580643722/wwia/region%20banners/greater_melbourne_jmn16p.jpg
Yarra Valley|Zonzo Estate|957 Healesville-Yarra Glen Rd; Yarra Glen|Yarra Glen||zonzo.com.au|hr@zonzo.com.au|03 9730 2500|https://res.cloudinary.com/dkowfxwpp/image/upload/v1580643722/wwia/region%20banners/greater_melbourne_jmn16p.jpg
